[{"OBJECT_NAME":"FGN-100-D2","OBJECT_ID":"2025-248G","EPOCH":"2026-03-09T00:05:30.712416","MEAN_MOTION":15.19697424,"ECCENTRICITY":0.00052703,"INCLINATION":45.4006,"RA_OF_ASC_NODE":298.0063,"ARG_OF_PERICENTER":203.9196,"MEAN_ANOMALY":156.1446,"EPHEMERIS_TYPE":0,"CLASSIFICATION_TYPE":"U","NORAD_CAT_ID":66299,"ELEMENT_SET_NO":999,"REV_AT_EPOCH":1927,"BSTAR":0.00030465999,"MEAN_MOTION_DOT":6.346e-5,"MEAN_MOTION_DDOT":0},{"OBJECT_NAME":"FLOCK 4H-34","OBJECT_ID":"2025-276BZ","EPOCH":"2026-03-09T04:19:28.608672","MEAN_MOTION":15.1928367,"ECCENTRICITY":0.00010193,"INCLINATION":97.4305,"RA_OF_ASC_NODE":143.5834,"ARG_OF_PERICENTER":313.8618,"MEAN_ANOMALY":46.2533,"EPHEMERIS_TYPE":0,"CLASSIFICATION_TYPE":"U","NORAD_CAT_ID":66737,"ELEMENT_SET_NO":999,"REV_AT_EPOCH":1449,"BSTAR":0.00036111821,"MEAN_MOTION_DOT":7.553e-5,"MEAN_MOTION_DDOT":0}]
